STARLINK-36984          
1 68168U 26050B   26086.91667824 -.00086699  00000+0 -43939-3 0  9997
2 68168  53.1596 190.4874 0000882  72.1267  49.2149 15.80909629  3377
STARLINK-37077          
1 68169U 26050C   26086.91667824 -.00096264  00000+0 -48883-3 0  9990
2 68169  53.1597 190.4783 0001431  59.1902  66.4271 15.80906589  3379
STARLINK-37003          
1 68170U 26050D   26086.91667824 -.00078817  00000+0 -39869-3 0  9990
2 68170  53.1595 190.4696 0001064  80.6921  49.1903 15.80912833  3373
STARLINK-37034          
1 68171U 26050E   26086.91667824 -.00089253  00000+0 -45245-3 0  9992
2 68171  53.1596 190.4604 0001147  60.4415  73.7103 15.80914603  3372
STARLINK-37031          
1 68172U 26050F   26086.91667824 -.00009740  00000+0 -45859-4 0  9998
2 68172  53.1596 190.4515 0001082  80.1149  58.3216 15.80875332  3374
STARLINK-37076          
1 68173U 26050G   26086.91667824 -.00091052  00000+0 -46197-3 0  9991
2 68173  53.1594 190.4429 0001194  95.0281  47.6741 15.80903752  3375
STARLINK-37078          
1 68174U 26050H   26086.91667824 -.00096446  00000+0 -48967-3 0  9991
2 68174  53.1594 190.4343 0001089 101.2092  45.7610 15.80912149  3378
STARLINK-36886          
1 68175U 26050J   26086.91667824 -.00071275  00000+0 -36013-3 0  9994
2 68175  53.1593 190.4251 0001124  77.4916  73.7575 15.80897817  3370
STARLINK-36905          
1 68176U 26050K   26086.91667824 -.00100741  00000+0 -51163-3 0  9999
2 68176  53.1593 190.4166 0001202  76.1573  79.3469 15.80922627  3370
STARLINK-36668          
1 68177U 26050L   26086.91667824 -.00006033  00000+0 -27046-4 0  9993
2 68177  53.1594 190.4076 0000757  33.0311 126.7603 15.80875653  3371
STARLINK-36677          
1 68178U 26050M   26086.91667824 -.00125465  00000+0 -64005-3 0  9990
2 68178  53.1593 190.3980 0000799  74.7032  89.3546 15.80918539  3373
STARLINK-37052          
1 68179U 26050N   26086.91667824 -.00052882  00000+0 -26584-3 0  9993
2 68179  53.1590 190.3896 0001066  97.8630  70.4771 15.80887516  3376
