CCSDS_OMM_VERS = 2.0
CREATION_DATE  = 
ORIGINATOR     = 

OBJECT_NAME    = STARLINK-36984
OBJECT_ID      = 2026-050B
CENTER_NAME    = EARTH
REF_FRAME      = TEME
TIME_SYSTEM    = UTC
MEAN_ELEMENT_THEORY = SGP/SGP4

EPOCH          = 2026-03-27T22:00:00.999936
MEAN_MOTION    = 15.80909629
ECCENTRICITY   = .00008826
INCLINATION    = 53.1596
RA_OF_ASC_NODE = 190.4874
ARG_OF_PERICENTER = 72.1267
MEAN_ANOMALY   = 49.2149

EPHEMERIS_TYPE = 0
CLASSIFICATION_TYPE = U
NORAD_CAT_ID   = 68168
ELEMENT_SET_NO = 999
REV_AT_EPOCH   = 337
BSTAR          = -.43939018E-3
MEAN_MOTION_DOT = -.86699E-3
MEAN_MOTION_DDOT = 0

CCSDS_OMM_VERS = 2.0
CREATION_DATE  = 
ORIGINATOR     = 

OBJECT_NAME    = STARLINK-37077
OBJECT_ID      = 2026-050C
CENTER_NAME    = EARTH
REF_FRAME      = TEME
TIME_SYSTEM    = UTC
MEAN_ELEMENT_THEORY = SGP/SGP4

EPOCH          = 2026-03-27T22:00:00.999936
MEAN_MOTION    = 15.80906589
ECCENTRICITY   = .0001431
INCLINATION    = 53.1597
RA_OF_ASC_NODE = 190.4783
ARG_OF_PERICENTER = 59.1902
MEAN_ANOMALY   = 66.4271

EPHEMERIS_TYPE = 0
CLASSIFICATION_TYPE = U
NORAD_CAT_ID   = 68169
ELEMENT_SET_NO = 999
REV_AT_EPOCH   = 337
BSTAR          = -.48883189E-3
MEAN_MOTION_DOT = -.96264E-3
MEAN_MOTION_DDOT = 0

CCSDS_OMM_VERS = 2.0
CREATION_DATE  = 
ORIGINATOR     = 

OBJECT_NAME    = STARLINK-37003
OBJECT_ID      = 2026-050D
CENTER_NAME    = EARTH
REF_FRAME      = TEME
TIME_SYSTEM    = UTC
MEAN_ELEMENT_THEORY = SGP/SGP4

EPOCH          = 2026-03-27T22:00:00.999936
MEAN_MOTION    = 15.80912833
ECCENTRICITY   = .00010646
INCLINATION    = 53.1595
RA_OF_ASC_NODE = 190.4696
ARG_OF_PERICENTER = 80.6921
MEAN_ANOMALY   = 49.1903

EPHEMERIS_TYPE = 0
CLASSIFICATION_TYPE = U
NORAD_CAT_ID   = 68170
ELEMENT_SET_NO = 999
REV_AT_EPOCH   = 337
BSTAR          = -.3986918E-3
MEAN_MOTION_DOT = -.78817E-3
MEAN_MOTION_DDOT = 0

CCSDS_OMM_VERS = 2.0
CREATION_DATE  = 
ORIGINATOR     = 

OBJECT_NAME    = STARLINK-37034
OBJECT_ID      = 2026-050E
CENTER_NAME    = EARTH
REF_FRAME      = TEME
TIME_SYSTEM    = UTC
MEAN_ELEMENT_THEORY = SGP/SGP4

EPOCH          = 2026-03-27T22:00:00.999936
MEAN_MOTION    = 15.80914603
ECCENTRICITY   = .00011478
INCLINATION    = 53.1596
RA_OF_ASC_NODE = 190.4604
ARG_OF_PERICENTER = 60.4415
MEAN_ANOMALY   = 73.7103

EPHEMERIS_TYPE = 0
CLASSIFICATION_TYPE = U
NORAD_CAT_ID   = 68171
ELEMENT_SET_NO = 999
REV_AT_EPOCH   = 337
BSTAR          = -.45245176E-3
MEAN_MOTION_DOT = -.89253E-3
MEAN_MOTION_DDOT = 0

CCSDS_OMM_VERS = 2.0
CREATION_DATE  = 
ORIGINATOR     = 

OBJECT_NAME    = STARLINK-37031
OBJECT_ID      = 2026-050F
CENTER_NAME    = EARTH
REF_FRAME      = TEME
TIME_SYSTEM    = UTC
MEAN_ELEMENT_THEORY = SGP/SGP4

EPOCH          = 2026-03-27T22:00:00.999936
MEAN_MOTION    = 15.80875332
ECCENTRICITY   = .00010827
INCLINATION    = 53.1596
RA_OF_ASC_NODE = 190.4515
ARG_OF_PERICENTER = 80.1149
MEAN_ANOMALY   = 58.3216

EPHEMERIS_TYPE = 0
CLASSIFICATION_TYPE = U
NORAD_CAT_ID   = 68172
ELEMENT_SET_NO = 999
REV_AT_EPOCH   = 337
BSTAR          = -.45858632E-4
MEAN_MOTION_DOT = -.974E-4
MEAN_MOTION_DDOT = 0

CCSDS_OMM_VERS = 2.0
CREATION_DATE  = 
ORIGINATOR     = 

OBJECT_NAME    = STARLINK-37076
OBJECT_ID      = 2026-050G
CENTER_NAME    = EARTH
REF_FRAME      = TEME
TIME_SYSTEM    = UTC
MEAN_ELEMENT_THEORY = SGP/SGP4

EPOCH          = 2026-03-27T22:00:00.999936
MEAN_MOTION    = 15.80903752
ECCENTRICITY   = .00011944
INCLINATION    = 53.1594
RA_OF_ASC_NODE = 190.4429
ARG_OF_PERICENTER = 95.0281
MEAN_ANOMALY   = 47.6741

EPHEMERIS_TYPE = 0
CLASSIFICATION_TYPE = U
NORAD_CAT_ID   = 68173
ELEMENT_SET_NO = 999
REV_AT_EPOCH   = 337
BSTAR          = -.46196932E-3
MEAN_MOTION_DOT = -.91052E-3
MEAN_MOTION_DDOT = 0

CCSDS_OMM_VERS = 2.0
CREATION_DATE  = 
ORIGINATOR     = 

OBJECT_NAME    = STARLINK-37078
OBJECT_ID      = 2026-050H
CENTER_NAME    = EARTH
REF_FRAME      = TEME
TIME_SYSTEM    = UTC
MEAN_ELEMENT_THEORY = SGP/SGP4

EPOCH          = 2026-03-27T22:00:00.999936
MEAN_MOTION    = 15.80912149
ECCENTRICITY   = .00010896
INCLINATION    = 53.1594
RA_OF_ASC_NODE = 190.4343
ARG_OF_PERICENTER = 101.2092
MEAN_ANOMALY   = 45.7610

EPHEMERIS_TYPE = 0
CLASSIFICATION_TYPE = U
NORAD_CAT_ID   = 68174
ELEMENT_SET_NO = 999
REV_AT_EPOCH   = 337
BSTAR          = -.48967045E-3
MEAN_MOTION_DOT = -.96446E-3
MEAN_MOTION_DDOT = 0

CCSDS_OMM_VERS = 2.0
CREATION_DATE  = 
ORIGINATOR     = 

OBJECT_NAME    = STARLINK-36886
OBJECT_ID      = 2026-050J
CENTER_NAME    = EARTH
REF_FRAME      = TEME
TIME_SYSTEM    = UTC
MEAN_ELEMENT_THEORY = SGP/SGP4

EPOCH          = 2026-03-27T22:00:00.999936
MEAN_MOTION    = 15.80897817
ECCENTRICITY   = .00011247
INCLINATION    = 53.1593
RA_OF_ASC_NODE = 190.4251
ARG_OF_PERICENTER = 77.4916
MEAN_ANOMALY   = 73.7575

EPHEMERIS_TYPE = 0
CLASSIFICATION_TYPE = U
NORAD_CAT_ID   = 68175
ELEMENT_SET_NO = 999
REV_AT_EPOCH   = 337
BSTAR          = -.36013122E-3
MEAN_MOTION_DOT = -.71275E-3
MEAN_MOTION_DDOT = 0

CCSDS_OMM_VERS = 2.0
CREATION_DATE  = 
ORIGINATOR     = 

OBJECT_NAME    = STARLINK-36905
OBJECT_ID      = 2026-050K
CENTER_NAME    = EARTH
REF_FRAME      = TEME
TIME_SYSTEM    = UTC
MEAN_ELEMENT_THEORY = SGP/SGP4

EPOCH          = 2026-03-27T22:00:00.999936
MEAN_MOTION    = 15.80922627
ECCENTRICITY   = .00012028
INCLINATION    = 53.1593
RA_OF_ASC_NODE = 190.4166
ARG_OF_PERICENTER = 76.1573
MEAN_ANOMALY   = 79.3469

EPHEMERIS_TYPE = 0
CLASSIFICATION_TYPE = U
NORAD_CAT_ID   = 68176
ELEMENT_SET_NO = 999
REV_AT_EPOCH   = 337
BSTAR          = -.5116305E-3
MEAN_MOTION_DOT = -.100741E-2
MEAN_MOTION_DDOT = 0

CCSDS_OMM_VERS = 2.0
CREATION_DATE  = 
ORIGINATOR     = 

OBJECT_NAME    = STARLINK-36668
OBJECT_ID      = 2026-050L
CENTER_NAME    = EARTH
REF_FRAME      = TEME
TIME_SYSTEM    = UTC
MEAN_ELEMENT_THEORY = SGP/SGP4

EPOCH          = 2026-03-27T22:00:00.999936
MEAN_MOTION    = 15.80875653
ECCENTRICITY   = .00007578
INCLINATION    = 53.1594
RA_OF_ASC_NODE = 190.4076
ARG_OF_PERICENTER = 33.0311
MEAN_ANOMALY   = 126.7603

EPHEMERIS_TYPE = 0
CLASSIFICATION_TYPE = U
NORAD_CAT_ID   = 68177
ELEMENT_SET_NO = 999
REV_AT_EPOCH   = 337
BSTAR          = -.27046314E-4
MEAN_MOTION_DOT = -.6033E-4
MEAN_MOTION_DDOT = 0

CCSDS_OMM_VERS = 2.0
CREATION_DATE  = 
ORIGINATOR     = 

OBJECT_NAME    = STARLINK-36677
OBJECT_ID      = 2026-050M
CENTER_NAME    = EARTH
REF_FRAME      = TEME
TIME_SYSTEM    = UTC
MEAN_ELEMENT_THEORY = SGP/SGP4

EPOCH          = 2026-03-27T22:00:00.999936
MEAN_MOTION    = 15.80918539
ECCENTRICITY   = .00007999
INCLINATION    = 53.1593
RA_OF_ASC_NODE = 190.3980
ARG_OF_PERICENTER = 74.7032
MEAN_ANOMALY   = 89.3546

EPHEMERIS_TYPE = 0
CLASSIFICATION_TYPE = U
NORAD_CAT_ID   = 68178
ELEMENT_SET_NO = 999
REV_AT_EPOCH   = 337
BSTAR          = -.6400496E-3
MEAN_MOTION_DOT = -.125465E-2
MEAN_MOTION_DDOT = 0

CCSDS_OMM_VERS = 2.0
CREATION_DATE  = 
ORIGINATOR     = 

OBJECT_NAME    = STARLINK-37052
OBJECT_ID      = 2026-050N
CENTER_NAME    = EARTH
REF_FRAME      = TEME
TIME_SYSTEM    = UTC
MEAN_ELEMENT_THEORY = SGP/SGP4

EPOCH          = 2026-03-27T22:00:00.999936
MEAN_MOTION    = 15.80887516
ECCENTRICITY   = .00010669
INCLINATION    = 53.1590
RA_OF_ASC_NODE = 190.3896
ARG_OF_PERICENTER = 97.8630
MEAN_ANOMALY   = 70.4771

EPHEMERIS_TYPE = 0
CLASSIFICATION_TYPE = U
NORAD_CAT_ID   = 68179
ELEMENT_SET_NO = 999
REV_AT_EPOCH   = 337
BSTAR          = -.26584113E-3
MEAN_MOTION_DOT = -.52882E-3
MEAN_MOTION_DDOT = 0

